GPS BIIR-2  (PRN 13)    
1 24876U 97035A   22145.42764232  .00000093  00000+0  00000+0 0  9995
2 24876  55.5074 156.5714 0057468  51.1580 309.3933  2.00563346182194
GPS BIIR-4  (PRN 20)    
1 26360U 00025A   22145.48380767 -.00000058  00000+0  00000+0 0  9993
2 26360  54.0408  79.8145 0047938 184.0293 304.6857  2.00574166161510
GPS BIIR-6  (PRN 22)    
1 26605U 00071A   22145.59682441  .00000091  00000+0  00000+0 0  9998
2 26605  55.0909 153.5673 0135922 254.1878  86.7015  2.00560980157758
GPS BIIR-8  (PRN 16)    
1 27663U 03005A   22145.35292363 -.00000071  00000+0  00000+0 0  9996
2 27663  55.5281 273.9782 0125888  41.0237 334.0397  2.00565910141552
GPS BIIR-9  (PRN 21)    
1 27704U 03010A   22144.79700149 -.00000111  00000+0  00000+0 0  9996
2 27704  55.0157  24.2631 0245116 305.4787 245.7921  2.00554838140332
GPS BIIR-11 (PRN 19)    
1 28190U 04009A   22144.60489244 -.00000074  00000+0  00000+0 0  9993
2 28190  56.0186 334.9820 0090383 119.2750 231.9167  2.00560837133169
GPS BIIR-13 (PRN 02)    
1 28474U 04045A   22145.55618376 -.00000111  00000+0  00000+0 0  9995
2 28474  55.3434  24.3615 0206639 278.8073 308.7222  2.00564582128673
GPS BIIRM-1 (PRN 17)    
1 28874U 05038A   22144.60474753 -.00000072  00000+0  00000+0 0  9992
2 28874  56.0858 332.4156 0137175 274.4296  97.2951  2.00577833122064
GPS BIIRM-2 (PRN 31)    
1 29486U 06042A   22145.23183760  .00000013  00000+0  00000+0 0  9997
2 29486  54.7164 210.1968 0103287  21.2243   1.6177  2.00555382114637
GPS BIIRM-3 (PRN 12)    
1 29601U 06052A   22145.14017356 -.00000070  00000+0  00000+0 0  9998
2 29601  55.5343 272.9233 0084145  73.3607 287.5428  2.00578663113649
GPS BIIRM-4 (PRN 15)    
1 32260U 07047A   22145.45794782  .00000078  00000+0  00000+0 0  9994
2 32260  53.3087 141.4964 0138593  62.2450 299.1672  2.00549445107050
GPS BIIRM-5 (PRN 29)    
1 32384U 07062A   22145.01370122 -.00000074  00000+0  00000+0 0  9995
2 32384  56.2037 333.1575 0020025 134.5720  36.3218  2.00560689105749
GPS BIIRM-6 (PRN 07)    
1 32711U 08012A   22144.87316318  .00000011  00000+0  00000+0 0  9995
2 32711  54.4760 209.1521 0162912 230.6682 127.9424  2.00564615103989
GPS BIIRM-8 (PRN 05)    
1 35752U 09043A   22145.51454376 -.00000042  00000+0  00000+0 0  9992
2 35752  55.0548  86.4507 0058038  57.6727  62.6506  2.00557438 93606
GPS BIIF-1  (PRN 25)    
1 36585U 10022A   22144.74685615 -.00000067  00000+0  00000+0 0  9999
2 36585  54.8170 268.4749 0103221  56.8441 345.5341  2.00564025 87825
GPS BIIF-2  (PRN 01)    
1 37753U 11036A   22145.32019412 -.00000111  00000+0  00000+0 0  9994
2 37753  56.5957  29.6038 0117290  51.4688 129.9331  2.00565261 79511
GPS BIIF-3  (PRN 24)    
1 38833U 12053A   22145.55180324  .00000029  00000+0  00000+0 0  9997
2 38833  53.5305 204.2881 0123073  46.0055 315.0752  2.00561532 69685
GPS BIIF-4  (PRN 27)    
1 39166U 13023A   22144.91196726 -.00000073  00000+0  00000+0 0  9997
2 39166  55.7139 328.7852 0104016  38.0482 322.6922  2.00566046 66118
GPS BIIF-5  (PRN 30)    
1 39533U 14008A   22144.41124566  .00000004  00000+0  00000+0 0  9990
2 39533  53.6251 209.8386 0059410 207.9033 151.8405  2.00552254 59908
GPS BIIF-6  (PRN 06)    
1 39741U 14026A   22144.19328713 -.00000109  00000+0  00000+0 0  9993
2 39741  56.5575  29.1733 0027352 307.7420  52.0462  2.00557702 58758
GPS BIIF-7  (PRN 09)    
1 40105U 14045A   22145.27571675  .00000088  00000+0  00000+0 0  9992
2 40105  54.6874 147.7289 0018671 109.4864 250.7397  2.00576426 56319
GPS BIIF-8  (PRN 03)    
1 40294U 14068A   22145.15348669 -.00000031  00000+0  00000+0 0  9997
2 40294  55.7990  88.8550 0040064  53.0975 307.2383  2.00569836 55446
GPS BIIF-9  (PRN 26)    
1 40534U 15013A   22145.28928739 -.00000070  00000+0  00000+0 0  9994
2 40534  53.7179 265.6550 0068569  20.6482 339.6148  2.00553837 52065
GPS BIIF-10 (PRN 08)    
1 40730U 15033A   22145.45372122 -.00000077  00000+0  00000+0 0  9999
2 40730  55.2127 327.6038 0074212   7.9202 352.2030  2.00553014 50238
GPS BIIF-11 (PRN 10)    
1 41019U 15062A   22145.00061580 -.00000030  00000+0  00000+0 0  9995
2 41019  55.7877  88.7034 0077536 218.4916 140.9257  2.00562804 48068
GPS BIIF-12 (PRN 32)    
1 41328U 16007A   22145.09319221  .00000088  00000+0  00000+0 0  9997
2 41328  54.9055 148.4025 0061605 230.4875 128.9913  2.00571758 46074
GPS BIII-1  (PRN 04)    
1 43873U 18109A   22140.55998345  .00000060  00000+0  00000+0 0  9995
2 43873  55.0843 150.9948 0018783 196.9869  25.2012  2.00569976 25219
GPS BIII-2  (PRN 18)    
1 44506U 19056A   22145.59479484 -.00000112  00000+0  00000+0 0  9997
2 44506  55.6687  29.9560 0022951 178.2959 342.5732  2.00556978 20313
GPS BIII-3  (PRN 23)    
1 45854U 20041A   22145.18684736 -.00000036  00000+0  00000+0 0  9998
2 45854  55.5062  87.2429 0021466 178.0702 344.1320  2.00559321 14275
GPS BIII-4  (PRN 14)    
1 46826U 20078A   22145.36678233 -.00000071  00000+0  00000+0 0  9992
2 46826  54.5823 271.0319 0019125 185.1986  81.3511  2.00565208 11744
GPS BIII-5  (PRN 11)    
1 48859U 21054A   22145.56097311 -.00000113  00000+0  00000+0 0  9996
2 48859  55.1737  31.9690 0003834 195.4850  34.1521  2.00574930  6992
